satname,norad_id,inclination_deg,eccentricity,mean_motion_rev_per_day,perigee_km,apogee_km,l1,l2
STARLINK-1336,45557,53.0353,0.0003466,16.047727,258.92085942759877,263.52326312887726,1 45557U 20025AC  25288.53264009  .00577815  16976-3  83434-3 0  9999,2 45557  53.0353 318.6572 0003466  50.1059 310.0277 16.04772700304324
STARLINK-1356,45564,53.0562,0.0001605,15.06388374,546.1356660204692,548.3587143455188,1 45564U 20025AK  25288.63929778  .00012301  00000+0  84353-3 0  9991,2 45564  53.0562  17.7726 0001605  98.3809 261.7362 15.06388374303509
STARLINK-1357,45565,53.0631,0.00052,15.29528857,473.65492866417117,480.784499646893,1 45565U 20025AL  25288.59203066  .00046009  00000+0  15879-2 0  9990,2 45565  53.0631   5.7433 0005200 263.8262  96.2145 15.29528857303671
STARLINK-1361,45567,53.0554,0.0001448,15.06393341,546.2291734629816,548.2347603157923,1 45567U 20025AN  25288.25962998  .00001225  00000+0  10115-3 0  9991,2 45567  53.0554  19.4767 0001448  91.9749 268.1406 15.06393341303458
STARLINK-1363,45568,53.0551,0.0001232,15.14562347,521.457422267561,523.1576918064156,1 45568U 20025AP  25288.91672454  .00923089  00000+0  45704-1 0  9991,2 45568  53.0551  16.6427 0001232  76.4639 234.4065 15.14562347  5791
STARLINK-1366,45569,53.0542,0.0001661,15.16550753,515.1294570756954,517.4197806154743,1 45569U 20025AQ  25288.91672454  .01919055  00000+0  87862-1 0  9992,2 45569  53.0542  16.2998 0001661  85.9916 337.9715 15.16550753  5533
STARLINK-1376,45570,53.057,0.0001433,15.06393133,546.2401989198916,548.2250098485074,1 45570U 20025AR  25288.65402402 -.00000091  00000+0  12818-4 0  9992,2 45570  53.0570  17.7111 0001433  80.7922 279.3229 15.06393133303509
STARLINK-1320,45572,53.0592,0.0009145,15.39948991,440.0191028365116,452.5009249749446,1 45572U 20025AT  25288.83162328  .00087159  00000+0  21381-2 0  9996,2 45572  53.0592 324.0938 0009145 309.1228  50.8962 15.39948991304298
STARLINK-1321,45573,53.0558,0.0001574,15.06398236,546.1269136355013,548.3070150634785,1 45573U 20025AU  25288.50751375  .00016749  00000+0  11407-2 0  9992,2 45573  53.0558   8.3663 0001574  99.7610 260.3557 15.06398236303329
STARLINK-1328,45576,53.0535,0.0008717,15.62512494,374.51086099813983,386.2936983783493,1 45576U 20025AX  25288.91672454  .00119122  00000+0  12979-2 0  9994,2 45576  53.0535 349.3754 0008717 333.4930 250.9642 15.62512494  5971
STARLINK-1331,45578,53.0561,0.0001661,15.06385692,546.1051025653032,548.4057179239862,1 45578U 20025AZ  25288.48538051 -.00002470  00000+0 -14702-3 0  9998,2 45578  53.0561   8.4661 0001661  81.8194 278.2983 15.06385692303630
STARLINK-1333,45580,53.0561,0.0001035,15.06406939,546.4735196096954,547.9070623589305,1 45580U 20025BB  25288.55820148  .00001599  00000+0  12622-3 0  9998,2 45580  53.0561  18.1380 0001035  93.3436 266.7671 15.06406939303499
STARLINK-1335,45581,53.056,0.0001213,15.06410969,546.3378990349083,548.0179804392883,1 45581U 20025BC  25288.62914368  .00002222  00000+0  16795-3 0  9994,2 45581  53.0560   7.8208 0001213 103.0175 257.0949 15.06410969303646
STARLINK-1337,45582,53.0556,0.0001334,15.06401719,546.2824486610562,548.1301302506827,1 45582U 20025BD  25288.51857287  .00010199  00000+0  70253-3 0  9990,2 45582  53.0556   8.3182 0001334  85.0792 275.0349 15.06401719303622
STARLINK-1347,45586,53.0578,0.0005026,15.28738021,476.1370631862046,483.03044408775986,1 45586U 20025BH  25288.58092874  .00044135  00000+0  15615-2 0  9991,2 45586  53.0578 356.1930 0005026 273.4813  86.5610 15.28738021303791
STARLINK-1360,45588,53.0464,0.0006154,15.71581083,350.2345504817631,358.52092962381994,1 45588U 20025BK  25288.70109205  .00103941  00000+0  78733-3 0  9996,2 45588  53.0464 279.2369 0006154  60.5454 299.6177 15.71581083304896
STARLINK-1364,45589,53.0551,0.0001418,15.06420938,546.165381401147,548.1293920532216,1 45589U 20025BL  25288.52226964  .00016268  00000+0  11079-2 0  9993,2 45589  53.0551   8.3045 0001418  89.5915 270.5236 15.06420938303620
STARLINK-1365,45590,53.0554,0.0001239,15.06396533,546.3641318114442,548.0802358171932,1 45590U 20025BM  25288.60426303  .00001907  00000+0  14692-3 0  9992,2 45590  53.0554  37.9292 0001239  75.4380 284.6747 15.06396533303231
STARLINK-1443,45660,53.0557,0.0001289,15.06398483,546.3235293002663,548.1088853571155,1 45660U 20035D   25288.58953169  .00014731  00000+0  10058-2 0  9993,2 45660  53.0557 358.0006 0001289 101.3807 258.7327 15.06398483296862
STARLINK-1446,45663,53.0273,0.0001675,15.3162636,469.81229736165733,472.10674469620335,1 45663U 20035G   25288.80482730  .00055158  00000+0  17800-2 0  9992,2 45663  53.0273 322.8869 0001675 233.1658 126.9188 15.31626360297377
STARLINK-1448,45665,53.056,0.0001681,15.06410615,546.0148790594085,548.3431703069073,1 45665U 20035J   25288.59321998  .00006040  00000+0  42388-3 0  9994,2 45665  53.0560 357.9806 0001681  88.6724 271.4458 15.06410615296856
STARLINK-1451,45668,53.0566,0.000129,15.06434611,546.2121259589567,547.9988385193756,1 45668U 20035M   25288.46423545  .00038804  00000+0  26073-2 0  9999,2 45668  53.0566 358.8806 0001290  93.2238 266.8899 15.06434611296841
STARLINK-1452,45669,53.0386,0.0008276,15.24591157,486.3276485191782,497.6991214363934,1 45669U 20035N   25288.57457616  .00028753  00000+0  11595-2 0  9993,2 45669  53.0386 341.5065 0008276 314.5690  45.4630 15.24591157297091
STARLINK-1453,45670,53.0553,0.0001419,15.06391909,546.2536453197645,548.2190662781413,1 45670U 20035P   25288.80607285  .00002804  00000+0  20710-3 0  9999,2 45670  53.0553 327.0303 0001419 104.3424 255.7722 15.06391909297209
STARLINK-1454,45671,53.0572,0.0001502,15.06404225,546.1584235435894,548.238794360519,1 45671U 20035Q   25288.48632352  .00003057  00000+0  22401-3 0  9997,2 45671  53.0572 358.4655 0001502  90.0370 270.0791 15.06404225296833
STARLINK-1456,45673,53.0565,0.0001467,15.06398917,546.1989280589032,548.2308262996676,1 45673U 20035S   25288.50107542  .00020703  00000+0  14047-2 0  9993,2 45673  53.0565 358.3997 0001467  88.0225 272.0932 15.06398917296852
STARLINK-1457,45674,53.0554,0.0001456,15.06391542,546.2291460870156,548.2458151357687,1 45674U 20035T   25288.57478486  .00013796  00000+0  94346-3 0  9994,2 45674  53.0554 358.0651 0001456 108.2683 251.8465 15.06391542296837
STARLINK-1458,45675,53.0555,0.0001507,15.06398678,546.1719590425591,548.259260319117,1 45675U 20035U   25288.49738287  .00009206  00000+0  63614-3 0  9999,2 45675  53.0555 358.4117 0001507 103.2438 256.8719 15.06398678296812
STARLINK-1460,45676,53.0553,0.0001329,15.06402988,546.2820225574842,548.1227777700478,1 45676U 20035V   25288.46789865  .00015334  00000+0  10460-2 0  9994,2 45676  53.0553 358.5437 0001329  90.8715 269.2427 15.06402988296801
STARLINK-1392,45677,53.0579,0.0001657,15.06401096,546.0606691587154,548.3557285576171,1 45677U 20035W   25288.61164282  .00002772  00000+0  20488-3 0  9996,2 45677  53.0579 357.8998 0001657  95.8652 264.2526 15.06401096296863
STARLINK-1394,45679,53.0552,0.0001255,15.06404474,546.3287162834413,548.0669753297379,1 45679U 20035Y   25288.47619595  .00009229  00000+0  63760-3 0  9998,2 45679  53.0552 348.5069 0001255 105.7575 254.3553 15.06404474296987
STARLINK-1402,45685,53.0559,0.0001715,15.12466565,527.4960667058622,529.8651051378329,1 45685U 20035AE  25288.91672454  .00077832  00000+0  43925-2 0  9992,2 45685  53.0559 340.8688 0001715  58.8098  48.5449 15.12466565  5691
STARLINK-1404,45686,53.0555,0.0001449,15.0639438,546.2252969805177,548.2322679842819,1 45686U 20035AF  25288.43564227  .00006558  00000+0  45880-3 0  9998,2 45686  53.0555 348.6934 0001449  89.2966 270.8189 15.06394380296987
STARLINK-1413,45689,53.0561,0.0001459,15.06400483,546.1996694746131,548.2204857518609,1 45689U 20035AJ  25288.38772588  .00007753  00000+0  53878-3 0  9990,2 45689  53.0561 348.9029 0001459  93.3906 266.7250 15.06400483296880
STARLINK-1417,45693,53.0558,0.0001412,15.06398511,546.2382616518234,548.1939813733388,1 45693U 20035AN  25288.58307647  .00014299  00000+0  97690-3 0  9990,2 45693  53.0558 348.0305 0001412  91.5803 268.5348 15.06398511296992
STARLINK-1420,45695,53.0551,0.0001402,15.06395065,546.2557470554366,548.1976190321611,1 45695U 20035AQ  25288.84935984  .00001397  00000+0  11268-3 0  9994,2 45695  53.0551 326.8236 0001402  87.4187 272.6962 15.06395065297329
STARLINK-1422,45696,53.0555,0.0001323,15.06399785,546.2959931809974,548.1284405837841,1 45696U 20035AR  25288.46144433  .00001382  00000+0  11164-3 0  9993,2 45696  53.0555 348.5755 0001323  80.1706 279.9432 15.06399785296975
STARLINK-1351,45697,53.0562,0.0001469,15.06403407,546.1837838244173,548.2184481628965,1 45697U 20035AS  25288.50382207  .00001475  00000+0  11789-3 0  9998,2 45697  53.0562 328.3864 0001469  93.9593 266.1564 15.06403407297273
STARLINK-1398,45699,53.0508,0.0001451,15.46786338,425.1470237641706,427.12162330225874,1 45699U 20035AU  25288.91672454  .00154511  00000+0  29819-2 0  9993,2 45699  53.0508 290.9020 0001451 350.0710 100.0165 15.46786338  5790
STARLINK-1400,45700,53.0551,0.000134,15.06396668,546.2937719820175,548.1497681323926,1 45700U 20035AV  25288.80976084  .00000820  00000+0  73957-4 0  9997,2 45700  53.0551 327.0134 0001340  94.7769 265.3373 15.06396668297318
STARLINK-1403,45701,53.0559,0.0001498,15.06402546,546.1663387808867,548.2411708710324,1 45701U 20035AW  25288.83924832  .00000321  00000+0  40451-4 0  9994,2 45701  53.0559 326.8808 0001498  87.6949 272.4211 15.06402546297310
STARLINK-1407,45703,53.042,0.0010777,15.37919464,444.9014837749328,459.62372708447583,1 45703U 20035AY  25288.71437720  .00116798  00000+0  30448-2 0  9997,2 45703  53.0420 289.7817 0010777 347.4461  12.6272 15.37919464297836
STARLINK-1411,45706,53.0541,0.0001252,15.36188,456.53827410782833,458.24989109091257,1 45706U 20035BB  25288.91672454  .00175114  00000+0  47926-2 0  9993,2 45706  53.0541 315.8067 0001252  68.0754 351.1995 15.36188000  5855
